start=new Date('2022-02-19T00:00:00.000Z').valueOf();
sats=[{"MEAN_MOTION":"15.06409604","PERIOD":"95.592","RA_OF_ASC_NODE":"94.5791","SITE":"AFETR","RCS_SIZE":"LARGE","SEMIMAJOR_AXIS":"6925.319","INCLINATION":"53.0551","OBJECT_TYPE":"PAYLOAD","MEAN_ELEMENT_THEORY":"SGP4","MEAN_MOTION_DOT":"-0.00003221","OBJECT_ID":"2021-038BM","MEAN_ANOMALY":"193.2438","REV_AT_EPOCH":"358","TLE_LINE2":"2 48412  53.0551  94.5791 0001550  45.8818 193.2438 15.06409604  3581","EPOCH":"2022-02-18T22:00:00.999936","GP_ID":"196332634","REF_FRAME":"TEME","ELEMENT_SET_NO":"999","PERIAPSIS":"546.111","TIME_SYSTEM":"UTC","LAUNCH_DATE":"2021-05-04","MEAN_MOTION_DDOT":"0.0000000000000","CENTER_NAME":"EARTH","FILE":"3307132","CLASSIFICATION_TYPE":"U","BSTAR":"-0.00019740000000","COUNTRY_CODE":"US","NORAD_CAT_ID":"48412","ECCENTRICITY":"0.00015500","EPHEMERIS_TYPE":"0","DECAY_DATE":null,"ARG_OF_PERICENTER":"45.8818","OBJECT_NAME":"STARLINK-2581","TLE_LINE1":"1 48412U 21038BM  22049.91667824 -.00003221  00000-0 -19740-3 0  9997","APOAPSIS":"548.258"},{"TIME_SYSTEM":"UTC","MEAN_MOTION_DDOT":"0.0000000000000","LAUNCH_DATE":"2021-05-09","ELEMENT_SET_NO":"999","PERIAPSIS":"545.994","DECAY_DATE":null,"ARG_OF_PERICENTER":"59.4292","EPHEMERIS_TYPE":"0","COUNTRY_CODE":"US","ECCENTRICITY":"0.00017310","NORAD_CAT_ID":"48428","APOAPSIS":"548.392","TLE_LINE1":"1 48428U 21040A   22049.85559947  .00002146  00000-0  16290-3 0  9996","OBJECT_NAME":"STARLINK-2461","FILE":"3307132","BSTAR":"0.00016290000000","CLASSIFICATION_TYPE":"U","CENTER_NAME":"EARTH","OBJECT_TYPE":"PAYLOAD","INCLINATION":"53.0563","SEMIMAJOR_AXIS":"6925.328","RCS_SIZE":"LARGE","MEAN_ELEMENT_THEORY":"SGP4","MEAN_MOTION_DOT":"0.00002146","PERIOD":"95.592","MEAN_MOTION":"15.06406736","SITE":"AFETR","RA_OF_ASC_NODE":"349.8499","EPOCH":"2022-02-18T20:32:03.794208","GP_ID":"196333135","REF_FRAME":"TEME","REV_AT_EPOCH":"4351","MEAN_ANOMALY":"300.6868","OBJECT_ID":"2021-040A","TLE_LINE2":"2 48428  53.0563 349.8499 0001731  59.4292 300.6868 15.06406736 43511"},{"BSTAR":"-0.00535640000000","FILE":"3306547","CLASSIFICATION_TYPE":"U","CENTER_NAME":"EARTH","APOAPSIS":"548.233","OBJECT_NAME":"STARLINK-2749","TLE_LINE1":"1 48429U 21040B   22049.91667824 -.00079232  00000-0 -53564-2 0  9994","DECAY_DATE":null,"ARG_OF_PERICENTER":"74.7255","ECCENTRICITY":"0.00015760","COUNTRY_CODE":"US","NORAD_CAT_ID":"48429","EPHEMERIS_TYPE":"0","PERIAPSIS":"546.051","ELEMENT_SET_NO":"999","MEAN_MOTION_DDOT":"0.0000000000000","LAUNCH_DATE":"2021-05-09","TIME_SYSTEM":"UTC","TLE_LINE2":"2 48429  53.0562 319.5802 0001576  74.7255  66.9363 15.06423356 45217","REV_AT_EPOCH":"4521","MEAN_ANOMALY":"66.9363","OBJECT_ID":"2021-040B","REF_FRAME":"TEME","GP_ID":"196297693","EPOCH":"2022-02-18T22:00:00.999936","SITE":"AFETR","RA_OF_ASC_NODE":"319.5802","MEAN_MOTION":"15.06423356","PERIOD":"95.591","MEAN_MOTION_DOT":"-0.00079232","MEAN_ELEMENT_THEORY":"SGP4","INCLINATION":"53.0562","OBJECT_TYPE":"PAYLOAD","RCS_SIZE":"LARGE","SEMIMAJOR_AXIS":"6925.277"},{"FILE":"3306863","CLASSIFICATION_TYPE":"U","BSTAR":"-0.00459140000000","CENTER_NAME":"EARTH","APOAPSIS":"548.004","OBJECT_NAME":"STARLINK-2729","TLE_LINE1":"1 48430U 21040C   22049.91667824 -.00068069  00000-0 -45914-2 0  9992","ARG_OF_PERICENTER":"71.3500","DECAY_DATE":null,"COUNTRY_CODE":"US","NORAD_CAT_ID":"48430","ECCENTRICITY":"0.00012610","EPHEMERIS_TYPE":"0","PERIAPSIS":"546.257","ELEMENT_SET_NO":"999","MEAN_MOTION_DDOT":"0.0000000000000","LAUNCH_DATE":"2021-05-09","TIME_SYSTEM":"UTC","TLE_LINE2":"2 48430  53.0540 319.5852 0001261  71.3500 250.3028 15.06427066 45227","REV_AT_EPOCH":"4522","MEAN_ANOMALY":"250.3028","OBJECT_ID":"2021-040C","GP_ID":"196305335","REF_FRAME":"TEME","EPOCH":"2022-02-18T22:00:00.999936","SITE":"AFETR","RA_OF_ASC_NODE":"319.5852","MEAN_MOTION":"15.06427066","PERIOD":"95.590","MEAN_ELEMENT_THEORY":"SGP4","MEAN_MOTION_DOT":"-0.00068069","INCLINATION":"53.0540","OBJECT_TYPE":"PAYLOAD","RCS_SIZE":"LARGE","SEMIMAJOR_AXIS":"6925.266"},{"CENTER_NAME":"EARTH","BSTAR":"-0.00129320000000","FILE":"3307132","CLASSIFICATION_TYPE":"U","EPHEMERIS_TYPE":"0","COUNTRY_CODE":"US","ECCENTRICITY":"0.00015640","NORAD_CAT_ID":"48431","DECAY_DATE":null,"ARG_OF_PERICENTER":"79.1033","TLE_LINE1":"1 48431U 21040D   22049.91667824 -.00019492  00000-0 -12932-2 0  9993","OBJECT_NAME":"STARLINK-2700","APOAPSIS":"548.295","ELEMENT_SET_NO":"999","PERIAPSIS":"546.129","TIME_SYSTEM":"UTC","LAUNCH_DATE":"2021-05-09","MEAN_MOTION_DDOT":"0.0000000000000","OBJECT_ID":"2021-040D","REV_AT_EPOCH":"358","MEAN_ANOMALY":"170.0694","TLE_LINE2":"2 48431  53.0549 314.5720 0001564  79.1033 170.0694 15.06400536  3582","EPOCH":"2022-02-18T22:00:00.999936","REF_FRAME":"TEME","GP_ID":"196332386","PERIOD":"95.592","MEAN_MOTION":"15.06400536","RA_OF_ASC_NODE":"314.5720","SITE":"AFETR","SEMIMAJOR_AXIS":"6925.347","RCS_SIZE":"LARGE","OBJECT_TYPE":"PAYLOAD","INCLINATION":"53.0549","MEAN_ELEMENT_THEORY":"SGP4","MEAN_MOTION_DOT":"-0.00019492"},{"GP_ID":"196304910","REF_FRAME":"TEME","EPOCH":"2022-02-18T22:00:00.999936","TLE_LINE2":"2 48432  53.0559 309.5821 0001357  76.2109 120.4382 15.06422363 44683","OBJECT_ID":"2021-040E","REV_AT_EPOCH":"4468","MEAN_ANOMALY":"120.4382","MEAN_MOTION_DOT":"-0.00065006","MEAN_ELEMENT_THEORY":"SGP4","SEMIMAJOR_AXIS":"6925.280","RCS_SIZE":"LARGE","OBJECT_TYPE":"PAYLOAD","INCLINATION":"53.0559","RA_OF_ASC_NODE":"309.5821","SITE":"AFETR","PERIOD":"95.591","MEAN_MOTION":"15.06422363","TLE_LINE1":"1 48432U 21040E   22049.91667824 -.00065006  00000-0 -43826-2 0  9992","OBJECT_NAME":"STARLINK-2680","APOAPSIS":"548.085","EPHEMERIS_TYPE":"0","COUNTRY_CODE":"US","ECCENTRICITY":"0.00013570","NORAD_CAT_ID":"48432","ARG_OF_PERICENTER":"76.2109","DECAY_DATE":null,"CENTER_NAME":"EARTH","FILE":"3306845","BSTAR":"-0.00438260000000","CLASSIFICATION_TYPE":"U","LAUNCH_DATE":"2021-05-09","MEAN_MOTION_DDOT":"0.0000000000000","TIME_SYSTEM":"UTC","PERIAPSIS":"546.205","ELEMENT_SET_NO":"999"},{"ELEMENT_SET_NO":"999","PERIAPSIS":"546.163","TIME_SYSTEM":"UTC","MEAN_MOTION_DDOT":"0.0000000000000","LAUNCH_DATE":"2021-05-09","BSTAR":"-0.00490600000000","FILE":"3306845","CLASSIFICATION_TYPE":"U","CENTER_NAME":"EARTH","DECAY_DATE":null,"ARG_OF_PERICENTER":"88.4623","NORAD_CAT_ID":"48433","COUNTRY_CODE":"US","ECCENTRICITY":"0.00013820","EPHEMERIS_TYPE":"0","APOAPSIS":"548.077","OBJECT_NAME":"STARLINK-2699","TLE_LINE1":"1 48433U 21040F   22049.91667824 -.00072674  00000-0 -49060-2 0  9998","MEAN_MOTION":"15.06430592","PERIOD":"95.590","SITE":"AFETR","RA_OF_ASC_NODE":"314.5735","INCLINATION":"53.0554","OBJECT_TYPE":"PAYLOAD","RCS_SIZE":"LARGE","SEMIMAJOR_AXIS":"6925.255","MEAN_ELEMENT_THEORY":"SGP4","MEAN_MOTION_DOT":"-0.00072674","REV_AT_EPOCH":"4461","MEAN_ANOMALY":"340.6896","OBJECT_ID":"2021-040F","TLE_LINE2":"2 48433  53.0554 314.5735 0001382  88.4623 340.6896 15.06430592 44615","EPOCH":"2022-02-18T22:00:00.999936","REF_FRAME":"TEME","GP_ID":"196304919"},{"TIME_SYSTEM":"UTC","LAUNCH_DATE":"2021-05-09","MEAN_MOTION_DDOT":"0.0000000000000","ELEMENT_SET_NO":"999","PERIAPSIS":"546.157","EPHEMERIS_TYPE":"0","COUNTRY_CODE":"US","NORAD_CAT_ID":"48434","ECCENTRICITY":"0.00013840","DECAY_DATE":null,"ARG_OF_PERICENTER":"88.0758","TLE_LINE1":"1 48434U 21040G   22049.91667824 -.00070839  00000-0 -47802-2 0  9992","OBJECT_NAME":"STARLINK-2692","APOAPSIS":"548.073","CENTER_NAME":"EARTH","FILE":"3306845","BSTAR":"-0.00478020000000","CLASSIFICATION_TYPE":"U","SEMIMAJOR_AXIS":"6925.250","RCS_SIZE":"LARGE","OBJECT_TYPE":"PAYLOAD","INCLINATION":"53.0546","MEAN_ELEMENT_THEORY":"SGP4","MEAN_MOTION_DOT":"-0.00070839","PERIOD":"95.590","MEAN_MOTION":"15.06432169","RA_OF_ASC_NODE":"319.5871","SITE":"AFETR","EPOCH":"2022-02-18T22:00:00.999936","REF_FRAME":"TEME","GP_ID":"196304911","OBJECT_ID":"2021-040G","REV_AT_EPOCH":"4439","MEAN_ANOMALY":"293.5573","TLE_LINE2":"2 48434  53.0546 319.5871 0001384  88.0758 293.5573 15.06432169 44395"},{"MEAN_ELEMENT_THEORY":"SGP4","MEAN_MOTION_DOT":"0.00002743","OBJECT_TYPE":"PAYLOAD","INCLINATION":"53.0557","SEMIMAJOR_AXIS":"6930.329","RCS_SIZE":"LARGE","SITE":"AFETR","RA_OF_ASC_NODE":"329.1153","PERIOD":"95.695","MEAN_MOTION":"15.04776374","REF_FRAME":"TEME","GP_ID":"196332886","EPOCH":"2022-02-18T22:19:12.020736","TLE_LINE2":"2 48435  53.0557 329.1153 0001890  60.2226 299.8950 15.04776374 43802","MEAN_ANOMALY":"299.8950","REV_AT_EPOCH":"4380","OBJECT_ID":"2021-040H","MEAN_MOTION_DDOT":"0.0000000000000","LAUNCH_DATE":"2021-05-09","TIME_SYSTEM":"UTC","PERIAPSIS":"550.884","ELEMENT_SET_NO":"999","APOAPSIS":"553.504","TLE_LINE1":"1 48435U 21040H   22049.93000024  .00002743  00000-0  21174-3 0  9990","OBJECT_NAME":"STARLINK-2633","DECAY_DATE":null,"ARG_OF_PERICENTER":"60.2226","EPHEMERIS_TYPE":"0","COUNTRY_CODE":"US","NORAD_CAT_ID":"48435","ECCENTRICITY":"0.00018900","CLASSIFICATION_TYPE":"U","FILE":"3307132","BSTAR":"0.00021174000000","CENTER_NAME":"EARTH"},{"ELEMENT_SET_NO":"999","PERIAPSIS":"545.952","TIME_SYSTEM":"UTC","LAUNCH_DATE":"2021-05-09","MEAN_MOTION_DDOT":"0.0000000000000","CENTER_NAME":"EARTH","BSTAR":"0.00013721000000","FILE":"3307132","CLASSIFICATION_TYPE":"U","EPHEMERIS_TYPE":"0","COUNTRY_CODE":"US","NORAD_CAT_ID":"48436","ECCENTRICITY":"0.00018310","DECAY_DATE":null,"ARG_OF_PERICENTER":"47.7411","TLE_LINE1":"1 48436U 21040J   22049.89107668  .00001763  00000-0  13721-3 0  9998","OBJECT_NAME":"STARLINK-2639","APOAPSIS":"548.488","PERIOD":"95.592","MEAN_MOTION":"15.06398018","RA_OF_ASC_NODE":"344.6851","SITE":"AFETR","SEMIMAJOR_AXIS":"6925.355","RCS_SIZE":"LARGE","OBJECT_TYPE":"PAYLOAD","INCLINATION":"53.0565","MEAN_MOTION_DOT":"0.00001763","MEAN_ELEMENT_THEORY":"SGP4","OBJECT_ID":"2021-040J","MEAN_ANOMALY":"312.3733","REV_AT_EPOCH":"4358","TLE_LINE2":"2 48436  53.0565 344.6851 0001831  47.7411 312.3733 15.06398018 43582","EPOCH":"2022-02-18T21:23:09.025152","GP_ID":"196333136","REF_FRAME":"TEME"}];
